CCSDS_OMM_VERS = 2.0
CREATION_DATE  = 
ORIGINATOR     = 

OBJECT_NAME    = FLOCK 4H-19
OBJECT_ID      = 2025-276BJ
CENTER_NAME    = EARTH
REF_FRAME      = TEME
TIME_SYSTEM    = UTC
MEAN_ELEMENT_THEORY = SGP/SGP4

EPOCH          = 2025-12-20T04:18:08.159040
MEAN_MOTION    = 15.18200139
ECCENTRICITY   = .000214
INCLINATION    = 97.4397
RA_OF_ASC_NODE = 65.8326
ARG_OF_PERICENTER = 159.3322
MEAN_ANOMALY   = 200.7999

EPHEMERIS_TYPE = 0
CLASSIFICATION_TYPE = U
NORAD_CAT_ID   = 66722
ELEMENT_SET_NO = 999
REV_AT_EPOCH   = 254
BSTAR          = .36219E-3
MEAN_MOTION_DOT = .7342E-4
MEAN_MOTION_DDOT = 0

CCSDS_OMM_VERS = 2.0
CREATION_DATE  = 
ORIGINATOR     = 

OBJECT_NAME    = FLOCK 4H-20
OBJECT_ID      = 2025-276BK
CENTER_NAME    = EARTH
REF_FRAME      = TEME
TIME_SYSTEM    = UTC
MEAN_ELEMENT_THEORY = SGP/SGP4

EPOCH          = 2025-12-20T04:17:24.412128
MEAN_MOTION    = 15.18256797
ECCENTRICITY   = .0002596
INCLINATION    = 97.4434
RA_OF_ASC_NODE = 65.8454
ARG_OF_PERICENTER = 179.8681
MEAN_ANOMALY   = 180.2554

EPHEMERIS_TYPE = 0
CLASSIFICATION_TYPE = U
NORAD_CAT_ID   = 66723
ELEMENT_SET_NO = 999
REV_AT_EPOCH   = 250
BSTAR          = .26187E-3
MEAN_MOTION_DOT = .5297E-4
MEAN_MOTION_DDOT = 0

CCSDS_OMM_VERS = 2.0
CREATION_DATE  = 
ORIGINATOR     = 

OBJECT_NAME    = FLOCK 4H-21
OBJECT_ID      = 2025-276BL
CENTER_NAME    = EARTH
REF_FRAME      = TEME
TIME_SYSTEM    = UTC
MEAN_ELEMENT_THEORY = SGP/SGP4

EPOCH          = 2025-12-20T04:16:46.728768
MEAN_MOTION    = 15.18317621
ECCENTRICITY   = .0002332
INCLINATION    = 97.4400
RA_OF_ASC_NODE = 65.8332
ARG_OF_PERICENTER = 176.4825
MEAN_ANOMALY   = 183.6426

EPHEMERIS_TYPE = 0
CLASSIFICATION_TYPE = U
NORAD_CAT_ID   = 66724
ELEMENT_SET_NO = 999
REV_AT_EPOCH   = 250
BSTAR          = .22071E-3
MEAN_MOTION_DOT = .4461E-4
MEAN_MOTION_DDOT = 0

CCSDS_OMM_VERS = 2.0
CREATION_DATE  = 
ORIGINATOR     = 

OBJECT_NAME    = FLOCK 4H-22
OBJECT_ID      = 2025-276BM
CENTER_NAME    = EARTH
REF_FRAME      = TEME
TIME_SYSTEM    = UTC
MEAN_ELEMENT_THEORY = SGP/SGP4

EPOCH          = 2025-12-20T00:00:02.000160
MEAN_MOTION    = 15.17442614
ECCENTRICITY   = .0001501
INCLINATION    = 97.4388
RA_OF_ASC_NODE = 65.6273
ARG_OF_PERICENTER = 316.1404
MEAN_ANOMALY   = 85.9729

EPHEMERIS_TYPE = 0
CLASSIFICATION_TYPE = U
NORAD_CAT_ID   = 66725
ELEMENT_SET_NO = 999
REV_AT_EPOCH   = 149
BSTAR          = .13118E-2
MEAN_MOTION_DOT = .26256E-3
MEAN_MOTION_DDOT = 0

CCSDS_OMM_VERS = 2.0
CREATION_DATE  = 
ORIGINATOR     = 

OBJECT_NAME    = FLOCK 4H-23
OBJECT_ID      = 2025-276BN
CENTER_NAME    = EARTH
REF_FRAME      = TEME
TIME_SYSTEM    = UTC
MEAN_ELEMENT_THEORY = SGP/SGP4

EPOCH          = 2025-12-20T03:03:19.685952
MEAN_MOTION    = 15.17195657
ECCENTRICITY   = .0003365
INCLINATION    = 97.4452
RA_OF_ASC_NODE = 65.7655
ARG_OF_PERICENTER = 256.6929
MEAN_ANOMALY   = 103.3930

EPHEMERIS_TYPE = 0
CLASSIFICATION_TYPE = U
NORAD_CAT_ID   = 66726
ELEMENT_SET_NO = 999
REV_AT_EPOCH   = 324
BSTAR          = .30628E-3
MEAN_MOTION_DOT = .6021E-4
MEAN_MOTION_DDOT = 0

CCSDS_OMM_VERS = 2.0
CREATION_DATE  = 
ORIGINATOR     = 

OBJECT_NAME    = FLOCK 4H-24
OBJECT_ID      = 2025-276BP
CENTER_NAME    = EARTH
REF_FRAME      = TEME
TIME_SYSTEM    = UTC
MEAN_ELEMENT_THEORY = SGP/SGP4

EPOCH          = 2025-12-20T04:36:09.343584
MEAN_MOTION    = 15.17300807
ECCENTRICITY   = .0002771
INCLINATION    = 97.4452
RA_OF_ASC_NODE = 65.8347
ARG_OF_PERICENTER = 276.6003
MEAN_ANOMALY   = 83.4915

EPHEMERIS_TYPE = 0
CLASSIFICATION_TYPE = U
NORAD_CAT_ID   = 66727
ELEMENT_SET_NO = 999
REV_AT_EPOCH   = 325
BSTAR          = .28211E-3
MEAN_MOTION_DOT = .5557E-4
MEAN_MOTION_DDOT = 0

CCSDS_OMM_VERS = 2.0
CREATION_DATE  = 
ORIGINATOR     = 

OBJECT_NAME    = FLOCK 4H-25
OBJECT_ID      = 2025-276BQ
CENTER_NAME    = EARTH
REF_FRAME      = TEME
TIME_SYSTEM    = UTC
MEAN_ELEMENT_THEORY = SGP/SGP4

EPOCH          = 2025-12-20T04:18:07.160256
MEAN_MOTION    = 15.18186383
ECCENTRICITY   = .0001632
INCLINATION    = 97.4407
RA_OF_ASC_NODE = 65.8366
ARG_OF_PERICENTER = 111.6925
MEAN_ANOMALY   = 248.4483

EPHEMERIS_TYPE = 0
CLASSIFICATION_TYPE = U
NORAD_CAT_ID   = 66728
ELEMENT_SET_NO = 999
REV_AT_EPOCH   = 253
BSTAR          = .36271E-3
MEAN_MOTION_DOT = .7349E-4
MEAN_MOTION_DDOT = 0

CCSDS_OMM_VERS = 2.0
CREATION_DATE  = 
ORIGINATOR     = 

OBJECT_NAME    = FLOCK 4H-26
OBJECT_ID      = 2025-276BR
CENTER_NAME    = EARTH
REF_FRAME      = TEME
TIME_SYSTEM    = UTC
MEAN_ELEMENT_THEORY = SGP/SGP4

EPOCH          = 2025-12-20T01:30:18.544032
MEAN_MOTION    = 15.17123736
ECCENTRICITY   = .0003642
INCLINATION    = 97.4405
RA_OF_ASC_NODE = 65.6857
ARG_OF_PERICENTER = 273.2903
MEAN_ANOMALY   = 86.7914

EPHEMERIS_TYPE = 0
CLASSIFICATION_TYPE = U
NORAD_CAT_ID   = 66729
ELEMENT_SET_NO = 999
REV_AT_EPOCH   = 323
BSTAR          = .32555E-3
MEAN_MOTION_DOT = .6391E-4
MEAN_MOTION_DDOT = 0

CCSDS_OMM_VERS = 2.0
CREATION_DATE  = 
ORIGINATOR     = 

OBJECT_NAME    = FLOCK 4H-27
OBJECT_ID      = 2025-276BS
CENTER_NAME    = EARTH
REF_FRAME      = TEME
TIME_SYSTEM    = UTC
MEAN_ELEMENT_THEORY = SGP/SGP4

EPOCH          = 2025-12-20T04:20:51.198432
MEAN_MOTION    = 15.18049887
ECCENTRICITY   = .0001052
INCLINATION    = 97.4387
RA_OF_ASC_NODE = 65.8267
ARG_OF_PERICENTER = 127.9653
MEAN_ANOMALY   = 232.1676

EPHEMERIS_TYPE = 0
CLASSIFICATION_TYPE = U
NORAD_CAT_ID   = 66730
ELEMENT_SET_NO = 999
REV_AT_EPOCH   = 325
BSTAR          = .27494E-3
MEAN_MOTION_DOT = .5532E-4
MEAN_MOTION_DDOT = 0

CCSDS_OMM_VERS = 2.0
CREATION_DATE  = 
ORIGINATOR     = 

OBJECT_NAME    = FLOCK 4H-28
OBJECT_ID      = 2025-276BT
CENTER_NAME    = EARTH
REF_FRAME      = TEME
TIME_SYSTEM    = UTC
MEAN_ELEMENT_THEORY = SGP/SGP4

EPOCH          = 2025-12-20T03:04:48.145728
MEAN_MOTION    = 15.17110062
ECCENTRICITY   = .0003226
INCLINATION    = 97.4390
RA_OF_ASC_NODE = 65.7479
ARG_OF_PERICENTER = 277.1965
MEAN_ANOMALY   = 82.8901

EPHEMERIS_TYPE = 0
CLASSIFICATION_TYPE = U
NORAD_CAT_ID   = 66731
ELEMENT_SET_NO = 999
REV_AT_EPOCH   = 324
BSTAR          = .28643E-3
MEAN_MOTION_DOT = .5612E-4
MEAN_MOTION_DDOT = 0

CCSDS_OMM_VERS = 2.0
CREATION_DATE  = 
ORIGINATOR     = 

OBJECT_NAME    = FLOCK 4H-29
OBJECT_ID      = 2025-276BU
CENTER_NAME    = EARTH
REF_FRAME      = TEME
TIME_SYSTEM    = UTC
MEAN_ELEMENT_THEORY = SGP/SGP4

EPOCH          = 2025-12-20T04:36:53.457696
MEAN_MOTION    = 15.17274230
ECCENTRICITY   = .0002503
INCLINATION    = 97.4513
RA_OF_ASC_NODE = 65.8133
ARG_OF_PERICENTER = 244.0915
MEAN_ANOMALY   = 116.0060

EPHEMERIS_TYPE = 0
CLASSIFICATION_TYPE = U
NORAD_CAT_ID   = 66732
ELEMENT_SET_NO = 999
REV_AT_EPOCH   = 325
BSTAR          = .63408E-3
MEAN_MOTION_DOT = .12574E-3
MEAN_MOTION_DDOT = 0

CCSDS_OMM_VERS = 2.0
CREATION_DATE  = 
ORIGINATOR     = 

OBJECT_NAME    = FLOCK 4H-30
OBJECT_ID      = 2025-276BV
CENTER_NAME    = EARTH
REF_FRAME      = TEME
TIME_SYSTEM    = UTC
MEAN_ELEMENT_THEORY = SGP/SGP4

EPOCH          = 2025-12-20T03:03:23.013216
MEAN_MOTION    = 15.17773353
ECCENTRICITY   = .0005951
INCLINATION    = 97.4445
RA_OF_ASC_NODE = 65.7654
ARG_OF_PERICENTER = 238.2181
MEAN_ANOMALY   = 121.8473

EPHEMERIS_TYPE = 0
CLASSIFICATION_TYPE = U
NORAD_CAT_ID   = 66733
ELEMENT_SET_NO = 999
REV_AT_EPOCH   = 324
BSTAR          = .19368E-1
MEAN_MOTION_DOT = .413861E-2
MEAN_MOTION_DDOT = 0

