FLOCK 4H-19             
1 66722U 25276BJ  25354.17926110  .00007342  00000+0  36219-3 0  9990
2 66722  97.4397  65.8326 0002140 159.3322 200.7999 15.18200139  2543
FLOCK 4H-20             
1 66723U 25276BK  25354.17875477  .00005297  00000+0  26187-3 0  9990
2 66723  97.4434  65.8454 0002596 179.8681 180.2554 15.18256797  2504
FLOCK 4H-21             
1 66724U 25276BL  25354.17831862  .00004461  00000+0  22071-3 0  9991
2 66724  97.4400  65.8332 0002332 176.4825 183.6426 15.18317621  2503
FLOCK 4H-22             
1 66725U 25276BM  25354.00002315  .00026256  00000+0  13118-2 0  9994
2 66725  97.4388  65.6273 0001501 316.1404  85.9729 15.17442614  1491
FLOCK 4H-23             
1 66726U 25276BN  25354.12731118  .00006021  00000+0  30628-3 0  9992
2 66726  97.4452  65.7655 0003365 256.6929 103.3930 15.17195657  3245
FLOCK 4H-24             
1 66727U 25276BP  25354.19177481  .00005557  00000+0  28211-3 0  9995
2 66727  97.4452  65.8347 0002771 276.6003  83.4915 15.17300807  3257
FLOCK 4H-25             
1 66728U 25276BQ  25354.17924954  .00007349  00000+0  36271-3 0  9995
2 66728  97.4407  65.8366 0001632 111.6925 248.4483 15.18186383  2530
FLOCK 4H-26             
1 66729U 25276BR  25354.06271463  .00006391  00000+0  32555-3 0  9991
2 66729  97.4405  65.6857 0003642 273.2903  86.7914 15.17123736  3238
FLOCK 4H-27             
1 66730U 25276BS  25354.18114813  .00005532  00000+0  27494-3 0  9993
2 66730  97.4387  65.8267 0001052 127.9653 232.1676 15.18049887  3255
FLOCK 4H-28             
1 66731U 25276BT  25354.12833502  .00005612  00000+0  28643-3 0  9997
2 66731  97.4390  65.7479 0003226 277.1965  82.8901 15.17110062  3246
FLOCK 4H-29             
1 66732U 25276BU  25354.19228539  .00012574  00000+0  63408-3 0  9996
2 66732  97.4513  65.8133 0002503 244.0915 116.0060 15.17274230  3252
FLOCK 4H-30             
1 66733U 25276BV  25354.12734969  .00413861  00000+0  19368-1 0  9997
2 66733  97.4445  65.7654 0005951 238.2181 121.8473 15.17773353  3245
